{
    "links": {
        "self": "http://www.neowsapp.com/rest/v1/neo/3840884?api_key=iIulBulltgU6a56xZRHN4H3l9WmuAYTsLGpBGhQ2"
    },
    "id": "3840884",
    "neo_reference_id": "3840884",
    "name": "(2019 GT5)",
    "designation": "2019 GT5",
    "nasa_jpl_url": "http://ssd.jpl.nasa.gov/sbdb.cgi?sstr=3840884",
    "absolute_magnitude_h": 25.9,
    "estimated_diameter": {
        "kilometers": {
            "estimated_diameter_min": 0.0175612318,
            "estimated_diameter_max": 0.0392681082
        },
        "meters": {
            "estimated_diameter_min": 17.561231848,
            "estimated_diameter_max": 39.2681081809
        },
        "miles": {
            "estimated_diameter_min": 0.0109120402,
            "estimated_diameter_max": 0.0244000636
        },
        "feet": {
            "estimated_diameter_min": 57.6155918963,
            "estimated_diameter_max": 128.8323800441
        }
    },
    "is_potentially_hazardous_asteroid": false,
    "close_approach_data": [
        {
            "close_approach_date": "2019-04-27",
            "close_approach_date_full": "2019-Apr-27 00:39",
            "epoch_date_close_approach": 1556325540000,
            "relative_velocity": {
                "kilometers_per_second": "6.629321398",
                "kilometers_per_hour": "23865.5570327517",
                "miles_per_hour": "14829.1290351562"
            },
            "miss_distance": {
                "astronomical": "0.0576064494",
                "lunar": "22.4089088166",
                "kilometers": "8617802.128502778",
                "miles": "5354853.9347752164"
            },
            "orbiting_body": "Earth"
        }
    ],
    "orbital_data": {
        "orbit_id": "2",
        "orbit_determination_date": "2019-07-27 14:01:54",
        "first_observation_date": "2019-04-07",
        "last_observation_date": "2019-04-09",
        "data_arc_in_days": 2,
        "observations_used": 11,
        "orbit_uncertainty": "8",
        "minimum_orbit_intersection": ".0566643",
        "jupiter_tisserand_invariant": "4.445",
        "epoch_osculation": "2458581.5",
        "eccentricity": ".3066472932459847",
        "semi_major_axis": "1.516534349980845",
        "inclination": "9.323152766176085",
        "ascending_node_longitude": "29.44576693012981",
        "orbital_period": "682.1451636479198",
        "perihelion_distance": "1.05149319644466",
        "perihelion_argument": "201.4576484309411",
        "aphelion_distance": "1.98157550351703",
        "perihelion_time": "2458614.037497182240",
        "mean_anomaly": "342.8284365120088",
        "mean_motion": ".5277469066478777",
        "equinox": "J2000",
        "orbit_class": {
            "orbit_class_type": "AMO",
            "orbit_class_description": "Near-Earth asteroid orbits similar to that of 1221 Amor",
            "orbit_class_range": "1.017 AU < q (perihelion) < 1.3 AU"
        }
    },
    "is_sentry_object": false
}